start=new Date('2023-03-13T00:00:00.000Z').valueOf();
sats=[{"NORAD_CAT_ID":"52296","COUNTRY_CODE":"US","FILE":"3858534","OBJECT_ID":"2022-041AM","APOAPSIS":"540.580","TIME_SYSTEM":"UTC","ARG_OF_PERICENTER":"77.9492","PERIAPSIS":"538.851","CLASSIFICATION_TYPE":"U","SITE":"AFETR","RCS_SIZE":"LARGE","GP_ID":"227931938","INCLINATION":"53.2154","OBJECT_NAME":"STARLINK-3766","LAUNCH_DATE":"2022-04-21","EPHEMERIS_TYPE":"0","MEAN_MOTION_DOT":"0.00011286","ELEMENT_SET_NO":"999","MEAN_ELEMENT_THEORY":"SGP4","MEAN_MOTION_DDOT":"0.0000000000000","REF_FRAME":"TEME","EPOCH":"2023-03-12T02:40:20.829216","RA_OF_ASC_NODE":"328.3909","TLE_LINE2":"2 52296  53.2154 328.3909 0001250  77.9492 282.1640 15.08849717 49417","SEMIMAJOR_AXIS":"6917.851","DECAY_DATE":null,"ECCENTRICITY":"0.00012500","MEAN_ANOMALY":"282.1640","OBJECT_TYPE":"PAYLOAD","CENTER_NAME":"EARTH","BSTAR":"0.00072586000000","TLE_LINE1":"1 52296U 22041AM  23071.11135219  .00011286  00000-0  72586-3 0  9998","REV_AT_EPOCH":"4941","MEAN_MOTION":"15.08849717","PERIOD":"95.437"},{"PERIOD":"95.437","MEAN_MOTION":"15.08846961","REV_AT_EPOCH":"4939","BSTAR":"0.00138700000000","TLE_LINE1":"1 52297U 22041AN  23070.99726523  .00021859  00000-0  13870-2 0  9995","OBJECT_TYPE":"PAYLOAD","CENTER_NAME":"EARTH","ECCENTRICITY":"0.00014090","MEAN_ANOMALY":"269.5307","SEMIMAJOR_AXIS":"6917.859","DECAY_DATE":null,"TLE_LINE2":"2 52297  53.2174 328.9006 0001409  90.5846 269.5307 15.08846961 49398","EPOCH":"2023-03-11T23:56:03.715872","REF_FRAME":"TEME","RA_OF_ASC_NODE":"328.9006","MEAN_MOTION_DDOT":"0.0000000000000","MEAN_ELEMENT_THEORY":"SGP4","ELEMENT_SET_NO":"999","EPHEMERIS_TYPE":"0","MEAN_MOTION_DOT":"0.00021859","OBJECT_NAME":"STARLINK-3758","INCLINATION":"53.2174","LAUNCH_DATE":"2022-04-21","GP_ID":"227931688","CLASSIFICATION_TYPE":"U","SITE":"AFETR","RCS_SIZE":"LARGE","PERIAPSIS":"538.749","ARG_OF_PERICENTER":"90.5846","TIME_SYSTEM":"UTC","APOAPSIS":"540.699","OBJECT_ID":"2022-041AN","COUNTRY_CODE":"US","FILE":"3858534","NORAD_CAT_ID":"52297"},{"ECCENTRICITY":"0.00011680","MEAN_ANOMALY":"273.1464","TLE_LINE2":"2 52298  53.2155 324.8356 0001168  86.9662 273.1464 15.08843578 49530","SEMIMAJOR_AXIS":"6917.869","DECAY_DATE":null,"REV_AT_EPOCH":"4953","PERIOD":"95.437","MEAN_MOTION":"15.08843578","OBJECT_TYPE":"PAYLOAD","CENTER_NAME":"EARTH","BSTAR":"0.00034507000000","TLE_LINE1":"1 52298U 22041AP  23071.90351001  .00005209  00000-0  34507-3 0  9995","EPHEMERIS_TYPE":"0","MEAN_MOTION_DOT":"0.00005209","ELEMENT_SET_NO":"999","RA_OF_ASC_NODE":"324.8356","REF_FRAME":"TEME","EPOCH":"2023-03-12T21:41:03.264864","MEAN_MOTION_DDOT":"0.0000000000000","MEAN_ELEMENT_THEORY":"SGP4","ARG_OF_PERICENTER":"86.9662","APOAPSIS":"540.542","TIME_SYSTEM":"UTC","GP_ID":"227964156","OBJECT_NAME":"STARLINK-3760","INCLINATION":"53.2155","LAUNCH_DATE":"2022-04-21","PERIAPSIS":"538.926","SITE":"AFETR","CLASSIFICATION_TYPE":"U","RCS_SIZE":"LARGE","NORAD_CAT_ID":"52298","OBJECT_ID":"2022-041AP","COUNTRY_CODE":"US","FILE":"3858743"},{"INCLINATION":"53.2151","OBJECT_NAME":"STARLINK-3759","LAUNCH_DATE":"2022-04-21","GP_ID":"227932681","CLASSIFICATION_TYPE":"U","SITE":"AFETR","RCS_SIZE":"LARGE","PERIAPSIS":"538.515","ARG_OF_PERICENTER":"53.1403","TIME_SYSTEM":"UTC","APOAPSIS":"540.798","OBJECT_ID":"2022-041AQ","COUNTRY_CODE":"US","FILE":"3858534","NORAD_CAT_ID":"52299","MEAN_MOTION":"15.08869037","PERIOD":"95.436","REV_AT_EPOCH":"4941","BSTAR":"0.00126440000000","TLE_LINE1":"1 52299U 22041AQ  23071.11502746  .00019908  00000-0  12644-2 0  9991","OBJECT_TYPE":"PAYLOAD","CENTER_NAME":"EARTH","ECCENTRICITY":"0.00016500","MEAN_ANOMALY":"306.9740","SEMIMAJOR_AXIS":"6917.792","DECAY_DATE":null,"TLE_LINE2":"2 52299  53.2151 328.3738 0001650  53.1403 306.9740 15.08869037 49412","REF_FRAME":"TEME","EPOCH":"2023-03-12T02:45:38.372544","RA_OF_ASC_NODE":"328.3738","MEAN_ELEMENT_THEORY":"SGP4","MEAN_MOTION_DDOT":"0.0000000000000","ELEMENT_SET_NO":"999","EPHEMERIS_TYPE":"0","MEAN_MOTION_DOT":"0.00019908"},{"NORAD_CAT_ID":"52300","FILE":"3858743","COUNTRY_CODE":"US","OBJECT_ID":"2022-041AR","APOAPSIS":"540.675","TIME_SYSTEM":"UTC","ARG_OF_PERICENTER":"95.4969","PERIAPSIS":"538.657","RCS_SIZE":"LARGE","SITE":"AFETR","CLASSIFICATION_TYPE":"U","GP_ID":"227963654","LAUNCH_DATE":"2022-04-21","INCLINATION":"53.2173","OBJECT_NAME":"STARLINK-3769","EPHEMERIS_TYPE":"0","MEAN_MOTION_DOT":"-0.00001831","ELEMENT_SET_NO":"999","MEAN_MOTION_DDOT":"0.0000000000000","MEAN_ELEMENT_THEORY":"SGP4","EPOCH":"2023-03-12T16:42:54.873216","REF_FRAME":"TEME","RA_OF_ASC_NODE":"325.7615","TLE_LINE2":"2 52300  53.2173 325.7615 0001459  95.4969 264.6189 15.08865926 50723","DECAY_DATE":null,"SEMIMAJOR_AXIS":"6917.801","MEAN_ANOMALY":"264.6189","ECCENTRICITY":"0.00014590","CENTER_NAME":"EARTH","OBJECT_TYPE":"PAYLOAD","TLE_LINE1":"1 52300U 22041AR  23071.69646844 -.00001831  00000-0 -96912-4 0  9995","BSTAR":"-0.00009691200000","REV_AT_EPOCH":"5072","MEAN_MOTION":"15.08865926","PERIOD":"95.436"},{"MEAN_ELEMENT_THEORY":"SGP4","MEAN_MOTION_DDOT":"0.0000000000000","REF_FRAME":"TEME","EPOCH":"2023-03-11T23:40:10.441344","RA_OF_ASC_NODE":"328.9549","EPHEMERIS_TYPE":"0","MEAN_MOTION_DOT":"0.00024824","ELEMENT_SET_NO":"999","CENTER_NAME":"EARTH","OBJECT_TYPE":"PAYLOAD","TLE_LINE1":"1 52301U 22041AS  23070.98623196  .00024824  00000-0  15712-2 0  9994","BSTAR":"0.00157120000000","REV_AT_EPOCH":"4939","PERIOD":"95.436","MEAN_MOTION":"15.08866090","TLE_LINE2":"2 52301  53.2160 328.9549 0001797  54.3872 305.7287 15.08866090 49393","DECAY_DATE":null,"SEMIMAJOR_AXIS":"6917.801","MEAN_ANOMALY":"305.7287","ECCENTRICITY":"0.00017970","FILE":"3858534","COUNTRY_CODE":"US","OBJECT_ID":"2022-041AS","NORAD_CAT_ID":"52301","PERIAPSIS":"538.423","RCS_SIZE":"LARGE","CLASSIFICATION_TYPE":"U","SITE":"AFETR","GP_ID":"227932189","LAUNCH_DATE":"2022-04-21","INCLINATION":"53.2160","OBJECT_NAME":"STARLINK-3768","APOAPSIS":"540.909","TIME_SYSTEM":"UTC","ARG_OF_PERICENTER":"54.3872"},{"NORAD_CAT_ID":"52302","OBJECT_ID":"2022-041AT","COUNTRY_CODE":"US","FILE":"3858743","ARG_OF_PERICENTER":"73.1346","TIME_SYSTEM":"UTC","APOAPSIS":"540.301","INCLINATION":"53.2170","OBJECT_NAME":"STARLINK-3564","LAUNCH_DATE":"2022-04-21","GP_ID":"227964656","CLASSIFICATION_TYPE":"U","SITE":"AFETR","RCS_SIZE":"LARGE","PERIAPSIS":"539.071","ELEMENT_SET_NO":"999","MEAN_MOTION_DOT":"0.00022019","EPHEMERIS_TYPE":"0","REF_FRAME":"TEME","EPOCH":"2023-03-12T16:28:20.012736","RA_OF_ASC_NODE":"315.8001","MEAN_ELEMENT_THEORY":"SGP4","MEAN_MOTION_DDOT":"0.0000000000000","ECCENTRICITY":"0.00008890","MEAN_ANOMALY":"286.9744","SEMIMAJOR_AXIS":"6917.821","DECAY_DATE":null,"TLE_LINE2":"2 52302  53.2170 315.8001 0000889  73.1346 286.9744 15.08859483 49632","MEAN_MOTION":"15.08859483","PERIOD":"95.436","REV_AT_EPOCH":"4963","BSTAR":"0.00139650000000","TLE_LINE1":"1 52302U 22041AT  23071.68634274  .00022019  00000-0  13965-2 0  9994","OBJECT_TYPE":"PAYLOAD","CENTER_NAME":"EARTH"},{"ARG_OF_PERICENTER":"139.7454","TIME_SYSTEM":"UTC","APOAPSIS":"540.264","INCLINATION":"53.2143","OBJECT_NAME":"STARLINK-3742","LAUNCH_DATE":"2022-04-21","GP_ID":"227933182","SITE":"AFETR","CLASSIFICATION_TYPE":"U","RCS_SIZE":"LARGE","PERIAPSIS":"538.908","NORAD_CAT_ID":"52303","OBJECT_ID":"2022-041AU","COUNTRY_CODE":"US","FILE":"3858534","ECCENTRICITY":"0.00009800","MEAN_ANOMALY":"220.3611","SEMIMAJOR_AXIS":"6917.721","DECAY_DATE":null,"TLE_LINE2":"2 52303  53.2143 328.4223 0000980 139.7454 220.3611 15.08892020 50631","MEAN_MOTION":"15.08892020","PERIOD":"95.434","REV_AT_EPOCH":"5063","BSTAR":"0.00273810000000","TLE_LINE1":"1 52303U 22041AU  23071.10398231  .00043621  00000-0  27381-2 0  9991","OBJECT_TYPE":"PAYLOAD","CENTER_NAME":"EARTH","ELEMENT_SET_NO":"999","EPHEMERIS_TYPE":"0","MEAN_MOTION_DOT":"0.00043621","REF_FRAME":"TEME","EPOCH":"2023-03-12T02:29:44.071584","RA_OF_ASC_NODE":"328.4223","MEAN_ELEMENT_THEORY":"SGP4","MEAN_MOTION_DDOT":"0.0000000000000"},{"TIME_SYSTEM":"UTC","APOAPSIS":"540.366","ARG_OF_PERICENTER":"52.7926","RCS_SIZE":"LARGE","SITE":"AFETR","CLASSIFICATION_TYPE":"U","PERIAPSIS":"538.812","LAUNCH_DATE":"2022-04-21","INCLINATION":"53.2150","OBJECT_NAME":"STARLINK-3744","GP_ID":"227931939","NORAD_CAT_ID":"52304","FILE":"3858534","COUNTRY_CODE":"US","OBJECT_ID":"2022-041AV","DECAY_DATE":null,"SEMIMAJOR_AXIS":"6917.724","TLE_LINE2":"2 52304  53.2150 318.5013 0001123  52.7926 307.3169 15.08891203 49549","MEAN_ANOMALY":"307.3169","ECCENTRICITY":"0.00011230","TLE_LINE1":"1 52304U 22041AV  23071.08650795  .00042091  00000-0  26433-2 0  9992","BSTAR":"0.00264330000000","CENTER_NAME":"EARTH","OBJECT_TYPE":"PAYLOAD","PERIOD":"95.434","MEAN_MOTION":"15.08891203","REV_AT_EPOCH":"4954","ELEMENT_SET_NO":"999","MEAN_MOTION_DOT":"0.00042091","EPHEMERIS_TYPE":"0","MEAN_ELEMENT_THEORY":"SGP4","MEAN_MOTION_DDOT":"0.0000000000000","RA_OF_ASC_NODE":"318.5013","REF_FRAME":"TEME","EPOCH":"2023-03-12T02:04:34.286880"},{"INCLINATION":"53.2153","OBJECT_NAME":"STARLINK-3724","LAUNCH_DATE":"2022-04-21","GP_ID":"227938472","SITE":"AFETR","CLASSIFICATION_TYPE":"U","RCS_SIZE":"MEDIUM","PERIAPSIS":"539.123","ARG_OF_PERICENTER":"86.0919","TIME_SYSTEM":"UTC","APOAPSIS":"540.379","OBJECT_ID":"2022-041AW","COUNTRY_CODE":"US","FILE":"3858680","NORAD_CAT_ID":"52305","PERIOD":"95.438","MEAN_MOTION":"15.08838138","REV_AT_EPOCH":"5067","BSTAR":"0.00185420000000","TLE_LINE1":"1 52305U 22041AW  23071.37265617  .00029343  00000-0  18542-2 0  9997","OBJECT_TYPE":"PAYLOAD","CENTER_NAME":"EARTH","ECCENTRICITY":"0.00009080","MEAN_ANOMALY":"274.0177","SEMIMAJOR_AXIS":"6917.886","DECAY_DATE":null,"TLE_LINE2":"2 52305  53.2153 327.3144 0000908  86.0919 274.0177 15.08838138 50671","EPOCH":"2023-03-12T08:56:37.493088","REF_FRAME":"TEME","RA_OF_ASC_NODE":"327.3144","MEAN_MOTION_DDOT":"0.0000000000000","MEAN_ELEMENT_THEORY":"SGP4","ELEMENT_SET_NO":"999","EPHEMERIS_TYPE":"0","MEAN_MOTION_DOT":"0.00029343"}];
